CCSDS_OMM_VERS = 2.0
CREATION_DATE  = 
ORIGINATOR     = 

OBJECT_NAME    = ATLAS CENTAUR 2
OBJECT_ID      = 1963-047A
CENTER_NAME    = EARTH
REF_FRAME      = TEME
TIME_SYSTEM    = UTC
MEAN_ELEMENT_THEORY = SGP/SGP4

EPOCH          = 2026-03-18T21:04:54.225696
MEAN_MOTION    = 14.12100752
ECCENTRICITY   = .0547475
INCLINATION    = 30.3526
RA_OF_ASC_NODE = 144.2888
ARG_OF_PERICENTER = 161.2664
MEAN_ANOMALY   = 200.8950

EPHEMERIS_TYPE = 0
CLASSIFICATION_TYPE = U
NORAD_CAT_ID   = 694
ELEMENT_SET_NO = 999
REV_AT_EPOCH   = 13292
BSTAR          = .19882E-3
MEAN_MOTION_DOT = .1729E-4
MEAN_MOTION_DDOT = 0

CCSDS_OMM_VERS = 2.0
CREATION_DATE  = 
ORIGINATOR     = 

OBJECT_NAME    = THOR AGENA D R/B
OBJECT_ID      = 1964-002A
CENTER_NAME    = EARTH
REF_FRAME      = TEME
TIME_SYSTEM    = UTC
MEAN_ELEMENT_THEORY = SGP/SGP4

EPOCH          = 2026-03-18T20:55:22.438272
MEAN_MOTION    = 14.34025298
ECCENTRICITY   = .0032143
INCLINATION    = 99.1221
RA_OF_ASC_NODE = 91.7097
ARG_OF_PERICENTER = 230.6368
MEAN_ANOMALY   = 129.1966

EPHEMERIS_TYPE = 0
CLASSIFICATION_TYPE = U
NORAD_CAT_ID   = 733
ELEMENT_SET_NO = 999
REV_AT_EPOCH   = 23961
BSTAR          = .76443E-4
MEAN_MOTION_DOT = .166E-5
MEAN_MOTION_DDOT = 0

CCSDS_OMM_VERS = 2.0
CREATION_DATE  = 
ORIGINATOR     = 

OBJECT_NAME    = SL-3 R/B
OBJECT_ID      = 1964-053B
CENTER_NAME    = EARTH
REF_FRAME      = TEME
TIME_SYSTEM    = UTC
MEAN_ELEMENT_THEORY = SGP/SGP4

EPOCH          = 2026-03-18T20:41:21.501024
MEAN_MOTION    = 14.61374747
ECCENTRICITY   = .0080089
INCLINATION    = 65.0769
RA_OF_ASC_NODE = 304.3461
ARG_OF_PERICENTER = 289.3323
MEAN_ANOMALY   = 69.9130

EPHEMERIS_TYPE = 0
CLASSIFICATION_TYPE = U
NORAD_CAT_ID   = 877
ELEMENT_SET_NO = 999
REV_AT_EPOCH   = 26813
BSTAR          = .48955E-4
MEAN_MOTION_DOT = .127E-5
MEAN_MOTION_DDOT = 0

CCSDS_OMM_VERS = 2.0
CREATION_DATE  = 
ORIGINATOR     = 

OBJECT_NAME    = SL-8 R/B
OBJECT_ID      = 1967-045B
CENTER_NAME    = EARTH
REF_FRAME      = TEME
TIME_SYSTEM    = UTC
MEAN_ELEMENT_THEORY = SGP/SGP4

EPOCH          = 2026-03-18T17:01:55.287552
MEAN_MOTION    = 14.45630385
ECCENTRICITY   = .0064561
INCLINATION    = 74.0131
RA_OF_ASC_NODE = 331.2457
ARG_OF_PERICENTER = 335.4682
MEAN_ANOMALY   = 24.3407

EPHEMERIS_TYPE = 0
CLASSIFICATION_TYPE = U
NORAD_CAT_ID   = 2802
ELEMENT_SET_NO = 999
REV_AT_EPOCH   = 9032
BSTAR          = .88339E-4
MEAN_MOTION_DOT = .292E-5
MEAN_MOTION_DDOT = 0

CCSDS_OMM_VERS = 2.0
CREATION_DATE  = 
ORIGINATOR     = 

OBJECT_NAME    = SL-8 R/B
OBJECT_ID      = 1968-040B
CENTER_NAME    = EARTH
REF_FRAME      = TEME
TIME_SYSTEM    = UTC
MEAN_ELEMENT_THEORY = SGP/SGP4

EPOCH          = 2026-03-18T21:26:36.798144
MEAN_MOTION    = 15.03317113
ECCENTRICITY   = .002349
INCLINATION    = 74.0301
RA_OF_ASC_NODE = 294.8872
ARG_OF_PERICENTER = 115.2075
MEAN_ANOMALY   = 245.1553

EPHEMERIS_TYPE = 0
CLASSIFICATION_TYPE = U
NORAD_CAT_ID   = 3230
ELEMENT_SET_NO = 999
REV_AT_EPOCH   = 9139
BSTAR          = .1848E-3
MEAN_MOTION_DOT = .248E-4
MEAN_MOTION_DDOT = 0

CCSDS_OMM_VERS = 2.0
CREATION_DATE  = 
ORIGINATOR     = 

OBJECT_NAME    = OAO 2
OBJECT_ID      = 1968-110A
CENTER_NAME    = EARTH
REF_FRAME      = TEME
TIME_SYSTEM    = UTC
MEAN_ELEMENT_THEORY = SGP/SGP4

EPOCH          = 2026-03-18T16:22:43.286016
MEAN_MOTION    = 14.47312870
ECCENTRICITY   = .000623
INCLINATION    = 34.9923
RA_OF_ASC_NODE = 215.0131
ARG_OF_PERICENTER = 270.7717
MEAN_ANOMALY   = 89.2260

EPHEMERIS_TYPE = 0
CLASSIFICATION_TYPE = U
NORAD_CAT_ID   = 3597
ELEMENT_SET_NO = 999
REV_AT_EPOCH   = 2040
BSTAR          = .62129E-4
MEAN_MOTION_DOT = .212E-5
MEAN_MOTION_DDOT = 0

CCSDS_OMM_VERS = 2.0
CREATION_DATE  = 
ORIGINATOR     = 

OBJECT_NAME    = ISIS 1
OBJECT_ID      = 1969-009A
CENTER_NAME    = EARTH
REF_FRAME      = TEME
TIME_SYSTEM    = UTC
MEAN_ELEMENT_THEORY = SGP/SGP4

EPOCH          = 2026-03-18T15:48:29.569248
MEAN_MOTION    = 11.30416873
ECCENTRICITY   = .1707888
INCLINATION    = 88.4525
RA_OF_ASC_NODE = 154.3303
ARG_OF_PERICENTER = 71.0700
MEAN_ANOMALY   = 306.7195

EPHEMERIS_TYPE = 0
CLASSIFICATION_TYPE = U
NORAD_CAT_ID   = 3669
ELEMENT_SET_NO = 999
REV_AT_EPOCH   = 34954
BSTAR          = .90577E-4
MEAN_MOTION_DOT = .15E-5
MEAN_MOTION_DDOT = 0

CCSDS_OMM_VERS = 2.0
CREATION_DATE  = 
ORIGINATOR     = 

OBJECT_NAME    = SERT 2
OBJECT_ID      = 1970-009A
CENTER_NAME    = EARTH
REF_FRAME      = TEME
TIME_SYSTEM    = UTC
MEAN_ELEMENT_THEORY = SGP/SGP4

EPOCH          = 2026-03-18T17:56:42.720288
MEAN_MOTION    = 13.58730695
ECCENTRICITY   = .0005395
INCLINATION    = 99.2772
RA_OF_ASC_NODE = 20.3462
ARG_OF_PERICENTER = 133.9044
MEAN_ANOMALY   = 247.6499

EPHEMERIS_TYPE = 0
CLASSIFICATION_TYPE = U
NORAD_CAT_ID   = 4327
ELEMENT_SET_NO = 999
REV_AT_EPOCH   = 78112
BSTAR          = .55005E-4
MEAN_MOTION_DOT = -.1E-7
MEAN_MOTION_DDOT = 0

CCSDS_OMM_VERS = 2.0
CREATION_DATE  = 
ORIGINATOR     = 

OBJECT_NAME    = SL-3 R/B
OBJECT_ID      = 1971-028B
CENTER_NAME    = EARTH
REF_FRAME      = TEME
TIME_SYSTEM    = UTC
MEAN_ELEMENT_THEORY = SGP/SGP4

EPOCH          = 2026-03-18T21:12:41.242752
MEAN_MOTION    = 15.61915732
ECCENTRICITY   = .0013467
INCLINATION    = 81.2370
RA_OF_ASC_NODE = 40.6662
ARG_OF_PERICENTER = 245.3773
MEAN_ANOMALY   = 114.6078

EPHEMERIS_TYPE = 0
CLASSIFICATION_TYPE = U
NORAD_CAT_ID   = 5118
ELEMENT_SET_NO = 999
REV_AT_EPOCH   = 99010
BSTAR          = .36665E-3
MEAN_MOTION_DOT = .32109E-3
MEAN_MOTION_DDOT = 0

CCSDS_OMM_VERS = 2.0
CREATION_DATE  = 
ORIGINATOR     = 

OBJECT_NAME    = ASTEX 1
OBJECT_ID      = 1971-089A
CENTER_NAME    = EARTH
REF_FRAME      = TEME
TIME_SYSTEM    = UTC
MEAN_ELEMENT_THEORY = SGP/SGP4

EPOCH          = 2026-03-18T15:37:15.458304
MEAN_MOTION    = 14.50779388
ECCENTRICITY   = .0017482
INCLINATION    = 92.7109
RA_OF_ASC_NODE = 154.6568
ARG_OF_PERICENTER = 59.3744
MEAN_ANOMALY   = 300.9183

EPHEMERIS_TYPE = 0
CLASSIFICATION_TYPE = U
NORAD_CAT_ID   = 5560
ELEMENT_SET_NO = 999
REV_AT_EPOCH   = 86360
BSTAR          = .11719E-3
MEAN_MOTION_DOT = .461E-5
MEAN_MOTION_DDOT = 0

CCSDS_OMM_VERS = 2.0
CREATION_DATE  = 
ORIGINATOR     = 

OBJECT_NAME    = SL-8 R/B
OBJECT_ID      = 1971-119B
CENTER_NAME    = EARTH
REF_FRAME      = TEME
TIME_SYSTEM    = UTC
MEAN_ELEMENT_THEORY = SGP/SGP4

EPOCH          = 2026-03-18T15:10:28.392384
MEAN_MOTION    = 14.38060547
ECCENTRICITY   = .0547535
INCLINATION    = 73.8878
RA_OF_ASC_NODE = 159.0024
ARG_OF_PERICENTER = 123.7532
MEAN_ANOMALY   = 241.7044

EPHEMERIS_TYPE = 0
CLASSIFICATION_TYPE = U
NORAD_CAT_ID   = 5730
ELEMENT_SET_NO = 999
REV_AT_EPOCH   = 65677
BSTAR          = .38986E-3
MEAN_MOTION_DOT = .7453E-4
MEAN_MOTION_DDOT = 0

CCSDS_OMM_VERS = 2.0
CREATION_DATE  = 
ORIGINATOR     = 

OBJECT_NAME    = OAO 3 (COPERNICUS)
OBJECT_ID      = 1972-065A
CENTER_NAME    = EARTH
REF_FRAME      = TEME
TIME_SYSTEM    = UTC
MEAN_ELEMENT_THEORY = SGP/SGP4

EPOCH          = 2026-03-18T18:06:39.949920
MEAN_MOTION    = 14.60005343
ECCENTRICITY   = .0007206
INCLINATION    = 35.0048
RA_OF_ASC_NODE = 245.6683
ARG_OF_PERICENTER = 238.6566
MEAN_ANOMALY   = 138.0068

EPHEMERIS_TYPE = 0
CLASSIFICATION_TYPE = U
NORAD_CAT_ID   = 6153
ELEMENT_SET_NO = 999
REV_AT_EPOCH   = 84752
BSTAR          = .69384E-4
MEAN_MOTION_DOT = .317E-5
MEAN_MOTION_DDOT = 0

