ATLAS CENTAUR 2         
1 00694U 63047A   26077.87840539  .00001729  00000+0  19882-3 0  9994
2 00694  30.3526 144.2888 0547475 161.2664 200.8950 14.12100752132927
THOR AGENA D R/B        
1 00733U 64002A   26077.87178748  .00000166  00000+0  76443-4 0  9997
2 00733  99.1221  91.7097 0032143 230.6368 129.1966 14.34025298239616
SL-3 R/B                
1 00877U 64053B   26077.86205441  .00000127  00000+0  48955-4 0  9996
2 00877  65.0769 304.3461 0080089 289.3323  69.9130 14.61374747268135
SL-8 R/B                
1 02802U 67045B   26077.70966768  .00000292  00000+0  88339-4 0  9992
2 02802  74.0131 331.2457 0064561 335.4682  24.3407 14.45630385 90321
SL-8 R/B                
1 03230U 68040B   26077.89348146  .00002480  00000+0  18480-3 0  9998
2 03230  74.0301 294.8872 0023490 115.2075 245.1553 15.03317113 91396
OAO 2                   
1 03597U 68110A   26077.68244544  .00000212  00000+0  62129-4 0  9997
2 03597  34.9923 215.0131 0006230 270.7717  89.2260 14.47312870 20401
ISIS 1                  
1 03669U 69009A   26077.65867557  .00000150  00000+0  90577-4 0  9996
2 03669  88.4525 154.3303 1707888  71.0700 306.7195 11.30416873349541
SERT 2                  
1 04327U 70009A   26077.74771667 -.00000001  00000+0  55005-4 0  9999
2 04327  99.2772  20.3462 0005395 133.9044 247.6499 13.58730695781124
SL-3 R/B                
1 05118U 71028B   26077.88381068  .00032109  00000+0  36665-3 0  9990
2 05118  81.2370  40.6662 0013467 245.3773 114.6078 15.61915732990100
ASTEX 1                 
1 05560U 71089A   26077.65087336  .00000461  00000+0  11719-3 0  9993
2 05560  92.7109 154.6568 0017482  59.3744 300.9183 14.50779388863604
SL-8 R/B                
1 05730U 71119B   26077.63227306  .00007453  00000+0  38986-3 0  9990
2 05730  73.8878 159.0024 0547535 123.7532 241.7044 14.38060547656772
OAO 3 (COPERNICUS)      
1 06153U 72065A   26077.75462905  .00000317  00000+0  69384-4 0  9999
2 06153  35.0048 245.6683 0007206 238.6566 138.0068 14.60005343847520
